[{"OBJECT_NAME":"IRIDIUM 151","OBJECT_ID":"2017-083E","EPOCH":"2026-03-09T21:03:19.137312","MEAN_MOTION":14.34219156,"ECCENTRICITY":0.00022172,"INCLINATION":86.4026,"RA_OF_ASC_NODE":3.558,"ARG_OF_PERICENTER":86.5929,"MEAN_ANOMALY":273.552,"EPHEMERIS_TYPE":0,"CLASSIFICATION_TYPE":"U","NORAD_CAT_ID":43074,"ELEMENT_SET_NO":999,"REV_AT_EPOCH":42990,"BSTAR":0.00015053451,"MEAN_MOTION_DOT":4.41e-6,"MEAN_MOTION_DDOT":0},{"OBJECT_NAME":"CZ-6A DEB","OBJECT_ID":"2024-140VX","EPOCH":"2026-03-09T13:43:28.686720","MEAN_MOTION":14.49095121,"ECCENTRICITY":0.0084397,"INCLINATION":88.921,"RA_OF_ASC_NODE":277.5576,"ARG_OF_PERICENTER":250.8173,"MEAN_ANOMALY":108.3885,"EPHEMERIS_TYPE":0,"CLASSIFICATION_TYPE":"U","NORAD_CAT_ID":61358,"ELEMENT_SET_NO":999,"REV_AT_EPOCH":7990,"BSTAR":0.00029019,"MEAN_MOTION_DOT":1.169e-5,"MEAN_MOTION_DDOT":0}]
